NORAD_CAT_ID,OBJECT_NAME,OBJECT_TYPE,EPOCH,MEAN_MOTION,ECCENTRICITY,INCLINATION,RA_OF_ASC_NODE,ARG_OF_PERICENTER,MEAN_ANOMALY,BSTAR,MEAN_MOTION_DOT,MEAN_MOTION_DDOT,TLE_LINE0,TLE_LINE1,TLE_LINE2,SEMIMAJOR_AXIS,PERIOD,APOGEE,PERIGEE,DECAYED
52452.0,STARLINK-3909,PAYLOAD,2024-02-13 20:25:34,15.08843963,0.0001467,53.2166,217.5949,94.4009,265.7151,0.00011029,1.468e-05,0.0,0 STARLINK-3909,1 52452U 22049B   24044.85109242  .00001468  00000-0  11029-3 0  9995,2 52452  53.2166 217.5949 0001467  94.4009 265.7151 15.08843963 98151,6917.868,95.437,540.748,538.718,0.0
52452.0,STARLINK-3909,PAYLOAD,2024-02-14 10:44:03,15.08836975,0.0001507,53.2166,214.9192,90.7343,269.3822,0.00013285,1.827e-05,0.0,0 STARLINK-3909,1 52452U 22049B   24045.44725697  .00001827  00000-0  13285-3 0  9994,2 52452  53.2166 214.9192 0001507  90.7343 269.3822 15.08836975 98405,6917.89,95.438,540.797,538.712,0.0
52452.0,STARLINK-3909,PAYLOAD,2024-02-14 17:05:35,15.08842348,0.000151,53.2168,213.7305,91.6976,268.4189,0.0001836,2.635e-05,0.0,0 STARLINK-3909,1 52452U 22049B   24045.71221345  .00002635  00000-0  18360-3 0  9992,2 52452  53.2168 213.7305 0001510  91.6976 268.4189 15.08842348 98289,6917.873,95.437,540.783,538.694,0.0
52452.0,STARLINK-3909,PAYLOAD,2024-02-15 04:13:17,15.08841101,0.000154,53.2167,211.6489,89.4653,270.6516,0.00013523,1.865e-05,0.0,0 STARLINK-3909,1 52452U 22049B   24046.17589601  .00001865  00000-0  13523-3 0  9995,2 52452  53.2167 211.6489 0001540  89.4653 270.6516 15.08841101 98351,6917.877,95.437,540.807,538.677,0.0
52452.0,STARLINK-3909,PAYLOAD,2024-02-15 18:31:45,15.08839622,0.0001334,53.216,208.9724,88.6357,271.4788,2.0709e-05,4.2e-07,0.0,0 STARLINK-3909,1 52452U 22049B   24046.77205927  .00000042  00000-0  20709-4 0  9998,2 52452  53.2160 208.9724 0001334  88.6357 271.4788 15.08839622 98601,6917.882,95.438,540.669,538.824,0.0
52452.0,STARLINK-3909,PAYLOAD,2024-02-15 20:07:08,15.08841497,0.0001361,53.2158,208.6722,91.3482,268.7666,3.0933e-05,2.04e-06,0.0,0 STARLINK-3909,1 52452U 22049B   24046.83829746  .00000204  00000-0  30933-4 0  9996,2 52452  53.2158 208.6722 0001361  91.3482 268.7666 15.08841497 98453,6917.876,95.437,540.682,538.799,0.0
52452.0,STARLINK-3909,PAYLOAD,2024-02-16 10:25:37,15.08835315,0.0001169,53.2161,205.9958,96.8865,263.226,0.00010161,1.329e-05,0.0,0 STARLINK-3909,1 52452U 22049B   24047.43445898  .00001329  00000-0  10161-3 0  9994,2 52452  53.2161 205.9958 0001169  96.8865 263.2260 15.08835315 98541,6917.895,95.438,540.568,538.951,0.0
52452.0,STARLINK-3909,PAYLOAD,2024-02-16 19:57:55,15.08851381,0.0001266,53.2157,204.2134,85.0301,275.0835,9.6997e-05,1.257e-05,0.0,0 STARLINK-3909,1 52452U 22049B   24047.83188840  .00001257  00000-0  96997-4 0  9991,2 52452  53.2157 204.2134 0001266  85.0301 275.0835 15.08851381 98761,6917.846,95.437,540.586,538.835,0.0
52452.0,STARLINK-3909,PAYLOAD,2024-02-17 03:54:51,15.08843899,0.0001504,53.2169,202.7281,83.9211,276.1953,8.5397e-05,1.072e-05,0.0,0 STARLINK-3909,1 52452U 22049B   24048.16309365  .00001072  00000-0  85397-4 0  9992,2 52452  53.2169 202.7281 0001504  83.9211 276.1953 15.08843899 98816,6917.868,95.437,540.774,538.693,0.0
52452.0,STARLINK-3909,PAYLOAD,2024-02-17 13:27:10,15.08836511,0.0001274,53.2171,200.9433,94.711,265.4027,0.00010788,1.429e-05,0.0,0 STARLINK-3909,1 52452U 22049B   24048.56053737  .00001429  00000-0  10788-3 0  9992,2 52452  53.2171 200.9433 0001274  94.7110 265.4027 15.08836511 98715,6917.891,95.438,540.637,538.875,0.0
52452.0,STARLINK-3909,PAYLOAD,2024-02-17 19:48:42,15.08843193,0.000132,53.2173,199.7513,100.2383,259.8758,7.2972e-05,8.74e-06,0.0,0 STARLINK-3909,1 52452U 22049B   24048.82549364  .00000874  00000-0  72972-4 0  9994,2 52452  53.2173 199.7513 0001320 100.2383 259.8758 15.08843193 98754,6917.871,95.437,540.649,538.822,0.0
52452.0,STARLINK-3909,PAYLOAD,2024-02-18 14:53:20,15.08839009,0.0001453,53.2173,196.1829,81.7984,278.3173,8.6001e-06,-1.51e-06,0.0,0 STARLINK-3909,1 52452U 22049B   24049.62037994 -.00000151  00000-0  86001-5 0  9992,2 52452  53.2173 196.1829 0001453  81.7984 278.3173 15.08839009 98873,6917.883,95.438,540.754,538.743,0.0
52452.0,STARLINK-3909,PAYLOAD,2024-02-18 19:39:29,15.08845391,0.0001408,53.2171,195.2902,94.4029,265.7124,2.5715e-05,1.21e-06,0.0,0 STARLINK-3909,1 52452U 22049B   24049.81909448  .00000121  00000-0  25715-4 0  9995,2 52452  53.2171 195.2902 0001408  94.4029 265.7124 15.08845391 99063,6917.864,95.437,540.703,538.755,0.0
52452.0,STARLINK-3909,PAYLOAD,2024-02-19 09:57:59,15.08828908,0.0001165,53.2179,192.6149,102.232,257.8803,-4.8889e-06,-3.66e-06,0.0,0 STARLINK-3909,1 52452U 22049B   24050.41526677 -.00000366  00000-0 -48889-5 0  9993,2 52452  53.2179 192.6149 0001165 102.2320 257.8803 15.08828908 99158,6917.914,95.438,540.585,538.973,0.0
52452.0,STARLINK-3909,PAYLOAD,2024-02-19 14:44:07,15.08836421,0.000162,53.2176,191.7226,109.3085,250.8082,6.093e-05,6.82e-06,0.0,0 STARLINK-3909,1 52452U 22049B   24050.61398138  .00000682  00000-0  60930-4 0  9993,2 52452  53.2176 191.7226 0001620 109.3085 250.8082 15.08836421 99020,6917.891,95.438,540.877,538.636,0.0
52452.0,STARLINK-3909,PAYLOAD,2024-02-19 16:19:31,15.08839212,0.0001361,53.2169,191.4277,95.3555,264.7592,9.6464e-05,1.248e-05,0.0,0 STARLINK-3909,1 52452U 22049B   24050.68022220  .00001248  00000-0  96464-4 0  9996,2 52452  53.2169 191.4277 0001361  95.3555 264.7592 15.08839212 99192,6917.883,95.438,540.689,538.806,0.0
52452.0,STARLINK-3909,PAYLOAD,2024-02-20 14:34:55,15.08839693,0.0001393,53.2166,187.2662,95.0242,265.0909,4.9719e-05,5.03e-06,0.0,0 STARLINK-3909,1 52452U 22049B   24051.60758446  .00000503  00000-0  49719-4 0  9999,2 52452  53.2166 187.2662 0001393  95.0242 265.0909 15.08839693 99172,6917.881,95.438,540.71,538.783,0.0
52452.0,STARLINK-3909,PAYLOAD,2024-02-20 16:10:18,15.08841802,0.0001338,53.2165,186.969,95.3622,264.7523,7.6311e-05,9.27e-06,0.0,0 STARLINK-3909,1 52452U 22049B   24051.67382271  .00000927  00000-0  76311-4 0  9993,2 52452  53.2165 186.9690 0001338  95.3622 264.7523 15.08841802 99186,6917.875,95.437,540.665,538.814,0.0
52452.0,STARLINK-3909,PAYLOAD,2024-02-21 14:25:42,15.08838898,0.0001356,53.2164,182.8066,101.2105,258.904,8.6861e-05,1.095e-05,0.0,0 STARLINK-3909,1 52452U 22049B   24052.60118605  .00001095  00000-0  86861-4 0  9993,2 52452  53.2164 182.8066 0001356 101.2105 258.9040 15.08838898 99326,6917.884,95.438,540.687,538.811,0.0
52452.0,STARLINK-3909,PAYLOAD,2024-02-21 16:01:05,15.08842345,0.0001318,53.2164,182.5092,100.1975,259.9166,0.000115,1.543e-05,0.0,0 STARLINK-3909,1 52452U 22049B   24052.66742320  .00001543  00000-0  11500-3 0  9991,2 52452  53.2164 182.5092 0001318 100.1975 259.9166 15.08842345 99493,6917.873,95.437,540.65,538.826,0.0
52452.0,STARLINK-3909,PAYLOAD,2024-02-22 14:16:27,15.08869194,0.0001282,53.2164,178.3463,98.9215,261.1922,0.00034612,5.229e-05,0.0,0 STARLINK-3909,1 52452U 22049B   24053.59476058  .00005229  00000-0  34612-3 0  9990,2 52452  53.2164 178.3463 0001282  98.9215 261.1922 15.08869194 99473,6917.791,95.436,540.543,538.769,0.0
52452.0,STARLINK-3909,PAYLOAD,2024-02-22 15:51:50,15.08872189,0.000124,53.2166,178.0494,84.4135,275.6998,0.00037563,5.7e-05,0.0,0 STARLINK-3909,1 52452U 22049B   24053.66099798  .00005700  00000-0  37563-3 0  9992,2 52452  53.2166 178.0494 0001240  84.4135 275.6998 15.08872189 99641,6917.782,95.436,540.505,538.789,0.0
52452.0,STARLINK-3909,PAYLOAD,2024-02-23 07:45:43,15.08843793,0.0001432,53.2172,175.077,80.8333,279.2821,2.8185e-05,1.61e-06,0.0,0 STARLINK-3909,1 52452U 22049B   24054.32342204  .00000161  00000-0  28185-4 0  9996,2 52452  53.2172 175.0770 0001432  80.8333 279.2821 15.08843793 99740,6917.869,95.437,540.724,538.743,0.0
52452.0,STARLINK-3909,PAYLOAD,2024-02-23 14:07:16,15.08840671,0.0001325,53.2179,173.8826,90.3745,269.7399,3.3857e-06,-2.34e-06,0.0,0 STARLINK-3909,1 52452U 22049B   24054.58838462 -.00000234  00000-0  33857-5 0  9995,2 52452  53.2179 173.8826 0001325  90.3745 269.7399 15.08840671 99622,6917.878,95.438,540.66,538.827,0.0
52452.0,STARLINK-3909,PAYLOAD,2024-02-24 12:22:40,15.0885247,0.0001197,53.2178,169.7195,102.3961,257.7165,-0.0002328,-3.992e-05,0.0,0 STARLINK-3909,1 52452U 22049B   24055.51574459 -.00003992  00000-0 -23280-3 0  9994,2 52452  53.2178 169.7195 0001197 102.3961 257.7165 15.08852470 99926,6917.842,95.437,540.535,538.879,0.0
52452.0,STARLINK-3909,PAYLOAD,2024-02-24 13:58:03,15.08854255,0.0001205,53.217,169.4241,80.7789,279.334,-0.00017326,-3.045e-05,0.0,0 STARLINK-3909,1 52452U 22049B   24055.58198220 -.00003045  00000-0 -17326-3 0  9992,2 52452  53.2170 169.4241 0001205  80.7789 279.3340 15.08854255 99775,6917.837,95.437,540.535,538.868,0.0
52452.0,STARLINK-3909,PAYLOAD,2024-02-25 13:48:50,15.08846868,0.0001399,53.2162,164.9633,93.5457,266.5695,0.00036396,5.51e-05,0.0,0 STARLINK-3909,1 52452U 22049B   24056.57558457  .00005510  00000-0  36396-3 0  9999,2 52452  53.2162 164.9633 0001399  93.5457 266.5695 15.08846868100088,6917.859,95.437,540.692,538.757,0.0
52452.0,STARLINK-3909,PAYLOAD,2024-02-26 12:04:15,15.08832647,0.0001504,53.2166,160.7994,95.8677,264.2487,2.8423e-05,1.64e-06,0.0,0 STARLINK-3909,1 52452U 22049B   24057.50295598  .00000164  00000-0  28423-4 0  9990,2 52452  53.2166 160.7994 0001504  95.8677 264.2487 15.08832647100223,6917.903,95.438,540.808,538.727,0.0
52452.0,STARLINK-3909,PAYLOAD,2024-02-26 13:39:37,15.08844633,0.0001912,53.2165,160.5024,122.6657,237.452,0.00017883,2.559e-05,0.0,0 STARLINK-3909,1 52452U 22049B   24057.56918777  .00002559  00000-0  17883-3 0  9994,2 52452  53.2165 160.5024 0001912 122.6657 237.4520 15.08844633100075,6917.866,95.437,541.054,538.409,0.0
52452.0,STARLINK-3909,PAYLOAD,2024-02-27 11:55:01,15.08842369,0.0001906,53.2163,156.3356,125.9463,234.1706,-8.5497e-06,-4.24e-06,0.0,0 STARLINK-3909,1 52452U 22049B   24058.49654721 -.00000424  00000-0 -85497-5 0  9992,2 52452  53.2163 156.3356 0001906 125.9463 234.1706 15.08842369100375,6917.873,95.437,541.057,538.42,0.0
